{
  "type": "FeatureCollection",
  "features": [
    {
      "type": "Feature",
      "properties": {
        "norad_id": 39766,
        "name": "ALOS-2",
        "group": "resource",
        "lat": -29.285004084475013,
        "lon": -103.384922190452,
        "alt_km": 637.2336571861779,
        "timestamp": "2025-12-12T05:47:28.428985+00:00",
        "meta_object_name": "ALOS-2",
        "meta_object_id": "2014-029A",
        "meta_epoch": "2025-12-11T23:58:40.105920",
        "meta_mean_motion": 14.7946834,
        "meta_eccentricity": 0.0001411,
        "meta_inclination": 97.9219,
        "meta_ra_of_asc_node": 80.8553,
        "meta_arg_of_pericenter": 102.192,
        "meta_mean_anomaly": 257.945,
        "meta_ephemeris_type": 0,
        "meta_classification_type": "U",
        "meta_norad_cat_id": 39766,
        "meta_element_set_no": 999,
        "meta_rev_at_epoch": 62390,
        "meta_bstar": 0.00052746193,
        "meta_mean_motion_dot": 3.889e-05,
        "meta_mean_motion_ddot": 0,
        "tle_line1": "1 39766U 14029A   25345.99907530  .00003889  00000+0  52746-3 0  9992",
        "tle_line2": "2 39766  97.9219  80.8553 0001411 102.1920 257.9450 14.79468340623909"
      },
      "geometry": {
        "type": "Point",
        "coordinates": [
          -103.384922190452,
          -29.285004084475013
        ]
      }
    },
    {
      "type": "Feature",
      "properties": {
        "norad_id": 40010,
        "name": "KAZEOSAT 2",
        "group": "resource",
        "lat": 69.25049086710169,
        "lon": 31.075552022468113,
        "alt_km": 607.1800764173558,
        "timestamp": "2025-12-12T05:47:28.428996+00:00",
        "meta_object_name": "KAZEOSAT 2",
        "meta_object_id": "2014-033A",
        "meta_epoch": "2025-12-12T00:26:56.903424",
        "meta_mean_motion": 14.85168883,
        "meta_eccentricity": 0.00075754,
        "meta_inclination": 97.5506,
        "meta_ra_of_asc_node": 190.3706,
        "meta_arg_of_pericenter": 209.1846,
        "meta_mean_anomaly": 150.8948,
        "meta_ephemeris_type": 0,
        "meta_classification_type": "U",
        "meta_norad_cat_id": 40010,
        "meta_element_set_no": 999,
        "meta_rev_at_epoch": 62117,
        "meta_bstar": 0.00021346272,
        "meta_mean_motion_dot": 1.779e-05,
        "meta_mean_motion_ddot": 0,
        "tle_line1": "1 40010U 14033A   25346.01871416  .00001779  00000+0  21346-3 0  9996",
        "tle_line2": "2 40010  97.5506 190.3706 0007575 209.1846 150.8948 14.85168883621173"
      },
      "geometry": {
        "type": "Point",
        "coordinates": [
          31.075552022468113,
          69.25049086710169
        ]
      }
    },
    {
      "type": "Feature",
      "properties": {
        "norad_id": 40011,
        "name": "HODOYOSHI-4",
        "group": "resource",
        "lat": -12.999049732048517,
        "lon": -6.603181376049379,
        "alt_km": 594.3935491937473,
        "timestamp": "2025-12-12T05:47:28.429006+00:00",
        "meta_object_name": "HODOYOSHI-4",
        "meta_object_id": "2014-033B",
        "meta_epoch": "2025-12-12T00:04:55.938144",
        "meta_mean_motion": 14.8747831,
        "meta_eccentricity": 0.00232014,
        "meta_inclination": 97.5415,
        "meta_ra_of_asc_node": 174.9233,
        "meta_arg_of_pericenter": 203.3013,
        "meta_mean_anomaly": 156.7154,
        "meta_ephemeris_type": 0,
        "meta_classification_type": "U",
        "meta_norad_cat_id": 40011,
        "meta_element_set_no": 999,
        "meta_rev_at_epoch": 62097,
        "meta_bstar": 0.00040840171,
        "meta_mean_motion_dot": 3.667e-05,
        "meta_mean_motion_ddot": 0,
        "tle_line1": "1 40011U 14033B   25346.00342521  .00003667  00000+0  40840-3 0  9994",
        "tle_line2": "2 40011  97.5415 174.9233 0023201 203.3013 156.7154 14.87478310620974"
      },
      "geometry": {
        "type": "Point",
        "coordinates": [
          -6.603181376049379,
          -12.999049732048517
        ]
      }
    },
    {
      "type": "Feature",
      "properties": {
        "norad_id": 40013,
        "name": "DEIMOS-2",
        "group": "resource",
        "lat": -19.509964915966222,
        "lon": -135.2280523607382,
        "alt_km": 594.1085097635905,
        "timestamp": "2025-12-12T05:47:28.429016+00:00",
        "meta_object_name": "DEIMOS-2",
        "meta_object_id": "2014-033D",
        "meta_epoch": "2025-12-11T23:26:42.357696",
        "meta_mean_motion": 14.92969321,
        "meta_eccentricity": 8.313e-05,
        "meta_inclination": 97.6063,
        "meta_ra_of_asc_node": 221.8025,
        "meta_arg_of_pericenter": 95.5301,
        "meta_mean_anomaly": 264.6013,
        "meta_ephemeris_type": 0,
        "meta_classification_type": "U",
        "meta_norad_cat_id": 40013,
        "meta_element_set_no": 999,
        "meta_rev_at_epoch": 60978,
        "meta_bstar": 0.00040719116,
        "meta_mean_motion_dot": 4.175e-05,
        "meta_mean_motion_ddot": 0,
        "tle_line1": "1 40013U 14033D   25345.97687914  .00004175  00000+0  40719-3 0  9999",
        "tle_line2": "2 40013  97.6063 221.8025 0000831  95.5301 264.6013 14.92969321609784"
      },
      "geometry": {
        "type": "Point",
        "coordinates": [
          -135.2280523607382,
          -19.509964915966222
        ]
      }
    },
    {
      "type": "Feature",
      "properties": {
        "norad_id": 40015,
        "name": "HODOYOSHI-3",
        "group": "resource",
        "lat": 56.24923079212041,
        "lon": -16.344763264984003,
        "alt_km": 622.1394157163468,
        "timestamp": "2025-12-12T05:47:28.429027+00:00",
        "meta_object_name": "HODOYOSHI-3",
        "meta_object_id": "2014-033F",
        "meta_epoch": "2025-12-12T00:23:04.432128",
        "meta_mean_motion": 14.84802941,
        "meta_eccentricity": 0.00318875,
        "meta_inclination": 97.6199,
        "meta_ra_of_asc_node": 151.8825,
        "meta_arg_of_pericenter": 250.4066,
        "meta_mean_anomaly": 109.3706,
        "meta_ephemeris_type": 0,
        "meta_classification_type": "U",
        "meta_norad_cat_id": 40015,
        "meta_element_set_no": 999,
        "meta_rev_at_epoch": 61984,
        "meta_bstar": 0.00033501729,
        "meta_mean_motion_dot": 2.817e-05,
        "meta_mean_motion_ddot": 0,
        "tle_line1": "1 40015U 14033F   25346.01602352  .00002817  00000+0  33502-3 0  9993",
        "tle_line2": "2 40015  97.6199 151.8825 0031887 250.4066 109.3706 14.84802941619848"
      },
      "geometry": {
        "type": "Point",
        "coordinates": [
          -16.344763264984003,
          56.24923079212041
        ]
      }
    },
    {
      "type": "Feature",
      "properties": {
        "norad_id": 40053,
        "name": "SPOT 7",
        "group": "resource",
        "lat": -67.66909329807595,
        "lon": -151.9326398226042,
        "alt_km": 699.1179366227698,
        "timestamp": "2025-12-12T05:47:28.429037+00:00",
        "meta_object_name": "SPOT 7",
        "meta_object_id": "2014-034A",
        "meta_epoch": "2025-12-12T01:21:59.359392",
        "meta_mean_motion": 14.60732273,
        "meta_eccentricity": 0.00015705,
        "meta_inclination": 98.0902,
        "meta_ra_of_asc_node": 48.1476,
        "meta_arg_of_pericenter": 87.4586,
        "meta_mean_anomaly": 272.6795,
        "meta_ephemeris_type": 0,
        "meta_classification_type": "U",
        "meta_norad_cat_id": 40053,
        "meta_element_set_no": 999,
        "meta_rev_at_epoch": 60981,
        "meta_bstar": 0.00019472946,
        "meta_mean_motion_dot": 9.04e-06,
        "meta_mean_motion_ddot": 0,
        "tle_line1": "1 40053U 14034A   25346.05693703  .00000904  00000+0  19473-3 0  9996",
        "tle_line2": "2 40053  98.0902  48.1476 0001570  87.4586 272.6795 14.60732273609810"
      },
      "geometry": {
        "type": "Point",
        "coordinates": [
          -151.9326398226042,
          -67.66909329807595
        ]
      }
    },
    {
      "type": "Feature",
      "properties": {
        "norad_id": 40072,
        "name": "SKYSAT-B",
        "group": "resource",
        "lat": 42.972451748759845,
        "lon": 117.79582200538337,
        "alt_km": 598.6572139017762,
        "timestamp": "2025-12-12T05:47:28.429048+00:00",
        "meta_object_name": "SKYSAT-B",
        "meta_object_id": "2014-037D",
        "meta_epoch": "2025-12-11T17:52:40.490976",
        "meta_mean_motion": 14.87321925,
        "meta_eccentricity": 0.00060726,
        "meta_inclination": 98.3607,
        "meta_ra_of_asc_node": 289.3985,
        "meta_arg_of_pericenter": 153.0618,
        "meta_mean_anomaly": 207.0912,
        "meta_ephemeris_type": 0,
        "meta_classification_type": "U",
        "meta_norad_cat_id": 40072,
        "meta_element_set_no": 999,
        "meta_rev_at_epoch": 61809,
        "meta_bstar": 0.00033654656,
        "meta_mean_motion_dot": 2.978e-05,
        "meta_mean_motion_ddot": 0,
        "tle_line1": "1 40072U 14037D   25345.74491309  .00002978  00000+0  33655-3 0  9994",
        "tle_line2": "2 40072  98.3607 289.3985 0006072 153.0618 207.0912 14.87321925618098"
      },
      "geometry": {
        "type": "Point",
        "coordinates": [
          117.79582200538337,
          42.972451748759845
        ]
      }
    }
  ]
}